{
  "type": "FeatureCollection",
  "features": [
    {
      "type": "Feature",
      "properties": {
        "norad_id": 50032,
        "name": "COSMOS 1408 DEB",
        "group": "cosmos-1408-debris",
        "lat": 22.67014029465679,
        "lon": -123.42991476912245,
        "alt_km": 423.407509266297,
        "timestamp": "2025-12-11T13:55:02.435547+00:00",
        "meta_object_name": "COSMOS 1408 DEB",
        "meta_object_id": "1982-092RU",
        "meta_epoch": "2025-12-11T05:28:13.739520",
        "meta_mean_motion": 15.45669243,
        "meta_eccentricity": 0.00151136,
        "meta_inclination": 82.564,
        "meta_ra_of_asc_node": 60.0581,
        "meta_arg_of_pericenter": 214.3913,
        "meta_mean_anomaly": 145.6359,
        "meta_ephemeris_type": 0,
        "meta_classification_type": "U",
        "meta_norad_cat_id": 50032,
        "meta_element_set_no": 999,
        "meta_rev_at_epoch": 22580,
        "meta_bstar": 0.00015919345,
        "meta_mean_motion_dot": 7.748e-05,
        "meta_mean_motion_ddot": 0,
        "tle_line1": "1 50032U 82092RU  25345.22793680  .00007748  00000+0  15919-3 0  9990",
        "tle_line2": "2 50032  82.5640  60.0581 0015113 214.3913 145.6359 15.45669243225806"
      },
      "geometry": {
        "type": "Point",
        "coordinates": [
          -123.42991476912245,
          22.67014029465679
        ]
      }
    },
    {
      "type": "Feature",
      "properties": {
        "norad_id": 50058,
        "name": "COSMOS 1408 DEB",
        "group": "cosmos-1408-debris",
        "lat": -75.65678622594494,
        "lon": 40.070307848452174,
        "alt_km": 394.28565532931225,
        "timestamp": "2025-12-11T13:55:02.435568+00:00",
        "meta_object_name": "COSMOS 1408 DEB",
        "meta_object_id": "1982-092SW",
        "meta_epoch": "2025-12-11T06:34:19.152192",
        "meta_mean_motion": 15.63964775,
        "meta_eccentricity": 0.00160129,
        "meta_inclination": 82.6138,
        "meta_ra_of_asc_node": 70.8772,
        "meta_arg_of_pericenter": 102.2436,
        "meta_mean_anomaly": 258.0617,
        "meta_ephemeris_type": 0,
        "meta_classification_type": "U",
        "meta_norad_cat_id": 50058,
        "meta_element_set_no": 999,
        "meta_rev_at_epoch": 22781,
        "meta_bstar": 0.00053909325,
        "meta_mean_motion_dot": 0.00051314,
        "meta_mean_motion_ddot": 0,
        "tle_line1": "1 50058U 82092SW  25345.27383278  .00051314  00000+0  53909-3 0  9990",
        "tle_line2": "2 50058  82.6138  70.8772 0016012 102.2436 258.0617 15.63964775227819"
      },
      "geometry": {
        "type": "Point",
        "coordinates": [
          40.070307848452174,
          -75.65678622594494
        ]
      }
    },
    {
      "type": "Feature",
      "properties": {
        "norad_id": 50404,
        "name": "COSMOS 1408 DEB",
        "group": "cosmos-1408-debris",
        "lat": -62.74668703290563,
        "lon": 51.64845448976097,
        "alt_km": 441.81090222190323,
        "timestamp": "2025-12-11T13:55:02.435582+00:00",
        "meta_object_name": "COSMOS 1408 DEB",
        "meta_object_id": "1982-092ADS",
        "meta_epoch": "2025-12-11T01:44:16.772640",
        "meta_mean_motion": 15.13391943,
        "meta_eccentricity": 0.01726658,
        "meta_inclination": 82.2029,
        "meta_ra_of_asc_node": 216.7405,
        "meta_arg_of_pericenter": 204.633,
        "meta_mean_anomaly": 154.6586,
        "meta_ephemeris_type": 0,
        "meta_classification_type": "U",
        "meta_norad_cat_id": 50404,
        "meta_element_set_no": 999,
        "meta_rev_at_epoch": 21168,
        "meta_bstar": 0.003930623,
        "meta_mean_motion_dot": 0.00102745,
        "meta_mean_motion_ddot": 0,
        "tle_line1": "1 50404U 82092ADS 25345.07241635  .00102745  00000+0  39306-2 0  9992",
        "tle_line2": "2 50404  82.2029 216.7405 0172665 204.6330 154.6586 15.13391943211680"
      },
      "geometry": {
        "type": "Point",
        "coordinates": [
          51.64845448976097,
          -62.74668703290563
        ]
      }
    },
    {
      "type": "Feature",
      "properties": {
        "norad_id": 50621,
        "name": "COSMOS 1408 DEB",
        "group": "cosmos-1408-debris",
        "lat": -30.128634765383424,
        "lon": 71.04418368184272,
        "alt_km": 423.0529444123622,
        "timestamp": "2025-12-11T13:55:02.435594+00:00",
        "meta_object_name": "COSMOS 1408 DEB",
        "meta_object_id": "1982-092ALR",
        "meta_epoch": "2025-12-11T06:20:02.529024",
        "meta_mean_motion": 15.56543067,
        "meta_eccentricity": 0.00288426,
        "meta_inclination": 82.5698,
        "meta_ra_of_asc_node": 75.7168,
        "meta_arg_of_pericenter": 157.9055,
        "meta_mean_anomaly": 202.3451,
        "meta_ephemeris_type": 0,
        "meta_classification_type": "U",
        "meta_norad_cat_id": 50621,
        "meta_element_set_no": 999,
        "meta_rev_at_epoch": 22227,
        "meta_bstar": 0.0006575939,
        "meta_mean_motion_dot": 0.00047764,
        "meta_mean_motion_ddot": 0,
        "tle_line1": "1 50621U 82092ALR 25345.26391816  .00047764  00000+0  65759-3 0  9992",
        "tle_line2": "2 50621  82.5698  75.7168 0028842 157.9055 202.3451 15.56543067222278"
      },
      "geometry": {
        "type": "Point",
        "coordinates": [
          71.04418368184272,
          -30.128634765383424
        ]
      }
    }
  ]
}